{
  "norad_id": 53154,
  "name": "STARLINK-4077",
  "history": [
    {
      "epoch": "2026-04-11T17:24:58.835808Z",
      "apogee_km": 540.6306250328671,
      "perigee_km": 538.7545096542044,
      "latitude_deg": 4.313157498801524e-05,
      "longitude_deg": -85.36925931526856,
      "height_km": 540.5615648519196,
      "semi_major_axis_km": 6917.829567343536,
      "eccentricity": 0.0001356,
      "inclination_deg": 53.2182,
      "raan_deg": 15.8169,
      "arg_perigee_deg": 88.3628,
      "mean_anomaly_deg": 271.752,
      "mean_motion_rev_day": 15.08856627
    },
    {
      "epoch": "2026-04-13T02:48:07.431552Z",
      "apogee_km": 540.7285951376434,
      "perigee_km": 538.8512081350764,
      "latitude_deg": 1.4394386077162707e-06,
      "longitude_deg": 126.22749037534828,
      "height_km": 540.5506159205385,
      "semi_major_axis_km": 6917.92690163636,
      "eccentricity": 0.00013569,
      "inclination_deg": 53.2193,
      "raan_deg": 9.5706,
      "arg_perigee_deg": 81.718,
      "mean_anomaly_deg": 278.3966,
      "mean_motion_rev_day": 15.08824783
    },
    {
      "epoch": "2026-04-14T10:35:50.517024Z",
      "apogee_km": 540.704459867814,
      "perigee_km": 538.9002612825761,
      "latitude_deg": -2.259371078998703e-05,
      "longitude_deg": 2.0463642597446787,
      "height_km": 540.6433383829934,
      "semi_major_axis_km": 6917.939360575195,
      "eccentricity": 0.0001304,
      "inclination_deg": 53.2191,
      "raan_deg": 3.6248,
      "arg_perigee_deg": 86.5054,
      "mean_anomaly_deg": 273.6087,
      "mean_motion_rev_day": 15.08820707
    },
    {
      "epoch": "2026-04-15T10:26:37.874112Z",
      "apogee_km": 540.6529153583442,
      "perigee_km": 538.9036512998027,
      "latitude_deg": -6.228902576952928e-05,
      "longitude_deg": -1.0909252060855947,
      "height_km": 540.6245338676648,
      "semi_major_axis_km": 6917.915283329074,
      "eccentricity": 0.00012643,
      "inclination_deg": 53.2186,
      "raan_deg": 359.1642,
      "arg_perigee_deg": 86.7409,
      "mean_anomaly_deg": 273.3727,
      "mean_motion_rev_day": 15.08828584
    },
    {
      "epoch": "2026-04-16T16:38:57.234336Z",
      "apogee_km": 540.641577118743,
      "perigee_km": 538.8415451171395,
      "latitude_deg": 7.590931667528972e-05,
      "longitude_deg": -101.06357840406811,
      "height_km": 540.682569437313,
      "semi_major_axis_km": 6917.878561117941,
      "eccentricity": 0.0001301,
      "inclination_deg": 53.2188,
      "raan_deg": 353.5126,
      "arg_perigee_deg": 92.8711,
      "mean_anomaly_deg": 267.2431,
      "mean_motion_rev_day": 15.08840598
    },
    {
      "epoch": "2026-04-17T22:51:16.076160Z",
      "apogee_km": 540.6787642206627,
      "perigee_km": 538.8285051915045,
      "latitude_deg": 1.0548997667105153e-05,
      "longitude_deg": 158.96658220760463,
      "height_km": 540.7277144974996,
      "semi_major_axis_km": 6917.890634706084,
      "eccentricity": 0.00013373,
      "inclination_deg": 53.2192,
      "raan_deg": 347.8618,
      "arg_perigee_deg": 94.8457,
      "mean_anomaly_deg": 265.2688,
      "mean_motion_rev_day": 15.08836648
    },
    {
      "epoch": "2026-04-18T02:02:02.762880Z",
      "apogee_km": 540.6199592688199,
      "perigee_km": 538.9187077432853,
      "latitude_deg": 8.162221597576814e-05,
      "longitude_deg": 110.54822412707166,
      "height_km": 540.6907743786738,
      "semi_major_axis_km": 6917.906333506053,
      "eccentricity": 0.00012296,
      "inclination_deg": 53.2185,
      "raan_deg": 347.2685,
      "arg_perigee_deg": 91.7147,
      "mean_anomaly_deg": 268.3987,
      "mean_motion_rev_day": 15.08831512
    },
    {
      "epoch": "2026-04-19T19:22:03.598176Z",
      "apogee_km": 540.5979475212089,
      "perigee_km": 538.6692730750583,
      "latitude_deg": -5.5134236337876675e-05,
      "longitude_deg": -158.88186818209346,
      "height_km": 540.6505156303282,
      "semi_major_axis_km": 6917.770610298134,
      "eccentricity": 0.0001394,
      "inclination_deg": 53.2195,
      "raan_deg": 339.5395,
      "arg_perigee_deg": 97.2074,
      "mean_anomaly_deg": 262.9076,
      "mean_motion_rev_day": 15.08875916
    },
    {
      "epoch": "2026-04-20T08:05:09.606336Z",
      "apogee_km": 540.7592712176893,
      "perigee_km": 538.8551762495481,
      "latitude_deg": -1.3083465717689712e-05,
      "longitude_deg": 7.441804610452566,
      "height_km": 540.7940270087703,
      "semi_major_axis_km": 6917.944223733618,
      "eccentricity": 0.00013762,
      "inclination_deg": 53.2201,
      "raan_deg": 337.1605,
      "arg_perigee_deg": 95.4747,
      "mean_anomaly_deg": 264.6402,
      "mean_motion_rev_day": 15.08819116
    },
    {
      "epoch": "2026-04-21T20:39:02.169792Z",
      "apogee_km": 540.6777320891815,
      "perigee_km": 538.8735404736399,
      "latitude_deg": 3.90229444655386e-05,
      "longitude_deg": 170.6307704295661,
      "height_km": 540.694711239719,
      "semi_major_axis_km": 6917.91263628141,
      "eccentricity": 0.0001304,
      "inclination_deg": 53.2178,
      "raan_deg": 330.3201,
      "arg_perigee_deg": 91.4774,
      "mean_anomaly_deg": 268.6368,
      "mean_motion_rev_day": 15.0882945
    },
    {
      "epoch": "2026-04-22T20:29:49.024032Z",
      "apogee_km": 540.6067310088174,
      "perigee_km": 538.8897118968525,
      "latitude_deg": -2.7721094199682462e-05,
      "longitude_deg": 167.4955576347472,
      "height_km": 540.6538613467898,
      "semi_major_axis_km": 6917.885221452834,
      "eccentricity": 0.0001241,
      "inclination_deg": 53.2183,
      "raan_deg": 325.8595,
      "arg_perigee_deg": 90.6454,
      "mean_anomaly_deg": 269.468,
      "mean_motion_rev_day": 15.08838419
    },
    {
      "epoch": "2026-04-22T20:29:49.024896Z",
      "apogee_km": 540.6068693665211,
      "perigee_km": 538.8895735391479,
      "latitude_deg": -2.9567801003637672e-05,
      "longitude_deg": 167.49555265186805,
      "height_km": 540.6538629053526,
      "semi_major_axis_km": 6917.885221452834,
      "eccentricity": 0.00012412,
      "inclination_deg": 53.2183,
      "raan_deg": 325.8595,
      "arg_perigee_deg": 90.6454,
      "mean_anomaly_deg": 269.468,
      "mean_motion_rev_day": 15.08838419
    },
    {
      "epoch": "2026-04-24T20:11:22.838784Z",
      "apogee_km": 540.5884246586429,
      "perigee_km": 538.8824773122287,
      "latitude_deg": -4.62894851428964e-05,
      "longitude_deg": 161.22287546763198,
      "height_km": 540.7268029835739,
      "semi_major_axis_km": 6917.8724509854355,
      "eccentricity": 0.0001233,
      "inclination_deg": 53.2183,
      "raan_deg": 316.9364,
      "arg_perigee_deg": 96.4188,
      "mean_anomaly_deg": 263.6944,
      "mean_motion_rev_day": 15.08842597
    },
    {
      "epoch": "2026-04-25T18:26:45.825216Z",
      "apogee_km": 540.5323966504584,
      "perigee_km": 538.9053169529379,
      "latitude_deg": -4.7614990227149154e-05,
      "longitude_deg": -177.69793976308443,
      "height_km": 540.3700387594293,
      "semi_major_axis_km": 6917.855856801698,
      "eccentricity": 0.0001176,
      "inclination_deg": 53.2185,
      "raan_deg": 312.7754,
      "arg_perigee_deg": 72.4744,
      "mean_anomaly_deg": 287.6376,
      "mean_motion_rev_day": 15.08848026
    },
    {
      "epoch": "2026-04-26T21:28:20.721792Z",
      "apogee_km": 540.650954252239,
      "perigee_km": 538.9246552964551,
      "latitude_deg": 1.0255728892734385e-05,
      "longitude_deg": 130.74086817494688,
      "height_km": 540.7983316271727,
      "semi_major_axis_km": 6917.924804774347,
      "eccentricity": 0.00012477,
      "inclination_deg": 53.218,
      "raan_deg": 307.7195,
      "arg_perigee_deg": 97.6294,
      "mean_anomaly_deg": 262.484,
      "mean_motion_rev_day": 15.08825469
    },
    {
      "epoch": "2026-04-27T19:43:44.726016Z",
      "apogee_km": 540.5959895514079,
      "perigee_km": 538.9149416822629,
      "latitude_deg": 3.7011848467009354e-05,
      "longitude_deg": 151.81202233396687,
      "height_km": 540.7437271822888,
      "semi_major_axis_km": 6917.892465616835,
      "eccentricity": 0.0001215,
      "inclination_deg": 53.2175,
      "raan_deg": 303.5547,
      "arg_perigee_deg": 96.3075,
      "mean_anomaly_deg": 263.8056,
      "mean_motion_rev_day": 15.08836049
    },
    {
      "epoch": "2026-04-28T17:59:09.170880Z",
      "apogee_km": 540.6936632391617,
      "perigee_km": 538.8880840641386,
      "latitude_deg": 3.244835062733871e-05,
      "longitude_deg": 172.88281212239778,
      "height_km": 540.6598093007951,
      "semi_major_axis_km": 6917.92787365165,
      "eccentricity": 0.0001305,
      "inclination_deg": 53.2177,
      "raan_deg": 299.3914,
      "arg_perigee_deg": 88.2945,
      "mean_anomaly_deg": 271.8197,
      "mean_motion_rev_day": 15.08824465
    },
    {
      "epoch": "2026-04-29T17:49:56.296416Z",
      "apogee_km": 540.6270210018629,
      "perigee_km": 538.8809453177146,
      "latitude_deg": 2.1043629047931855e-05,
      "longitude_deg": 169.74870978556953,
      "height_km": 540.6469115450533,
      "semi_major_axis_km": 6917.890983159788,
      "eccentricity": 0.0001262,
      "inclination_deg": 53.2171,
      "raan_deg": 294.933,
      "arg_perigee_deg": 89.8112,
      "mean_anomaly_deg": 270.3025,
      "mean_motion_rev_day": 15.08836534
    },
    {
      "epoch": "2026-04-30T11:19:10.456320Z",
      "apogee_km": 540.6078699031859,
      "perigee_km": 538.8566804748652,
      "latitude_deg": -1.2865511998065045e-05,
      "longitude_deg": -96.54959170373999,
      "height_km": 540.618173045528,
      "semi_major_axis_km": 6917.869275189026,
      "eccentricity": 0.00012657,
      "inclination_deg": 53.2174,
      "raan_deg": 291.6619,
      "arg_perigee_deg": 89.3494,
      "mean_anomaly_deg": 270.7643,
      "mean_motion_rev_day": 15.08843636
    }
  ]
}